{"type": "FeatureCollection", "features": [ {"type": "Feature", "properties": {"norad_id": 31566, "name": "FENGYUN 1C DEB", "group": "fengyun-1c-debris", "lat": -55.80528827056942, "lon": -135.70253559903375, "alt_km": 771.3602719864048, "timestamp": "2025-12-24T07:45:06.483112+00:00", "meta": {"OBJECT_NAME": "FENGYUN 1C DEB", "OBJECT_ID": "1999-025BZH", "EPOCH": "2025-12-23T20:55:52.896864", "MEAN_MOTION": 14.37517411, "ECCENTRICITY": 0.00233006, "INCLINATION": 98.9478, "RA_OF_ASC_NODE": 57.2362, "ARG_OF_PERICENTER": 320.1374, "MEAN_ANOMALY": 105.0528, "EPHEMERIS_TYPE": 0, "CLASSIFICATION_TYPE": "U", "NORAD_CAT_ID": 31566, "ELEMENT_SET_NO": 999, "REV_AT_EPOCH": 96551, "BSTAR": 0.0021354453, "MEAN_MOTION_DOT": 6.374e-05, "MEAN_MOTION_DDOT": 0}, "tle": {"line1": "1 31566U 99025BZH 25357.87214001  .00006374  00000+0  21354-2 0  9997", "line2": "2 31566  98.9478  57.2362 0023300 320.1374 105.0528 14.37517411965512"}}, "geometry": {"type": "Point", "coordinates": [-135.70253559903375, -55.80528827056942]}}, {"type": "Feature", "properties": {"norad_id": 31567, "name": "FENGYUN 1C DEB", "group": "fengyun-1c-debris", "lat": 63.75092653614164, "lon": 75.1138269146218, "alt_km": 1044.637677170892, "timestamp": "2025-12-24T07:45:06.483122+00:00", "meta": {"OBJECT_NAME": "FENGYUN 1C DEB", "OBJECT_ID": "1999-025BZJ", "EPOCH": "2025-12-23T20:51:17.831232", "MEAN_MOTION": 13.92963607, "ECCENTRICITY": 0.01864004, "INCLINATION": 102.3176, "RA_OF_ASC_NODE": 228.2111, "ARG_OF_PERICENTER": 282.1033, "MEAN_ANOMALY": 75.9286, "EPHEMERIS_TYPE": 0, "CLASSIFICATION_TYPE": "U", "NORAD_CAT_ID": 31567, "ELEMENT_SET_NO": 999, "REV_AT_EPOCH": 67564, "BSTAR": 0.0028089965, "MEAN_MOTION_DOT": 4.139e-05, "MEAN_MOTION_DDOT": 0}, "tle": {"line1": "1 31567U 99025BZJ 25357.86895638  .00004139  00000+0  28090-2 0  9999", "line2": "2 31567 102.3176 228.2111 0186400 282.1033  75.9286 13.92963607675640"}}, "geometry": {"type": "Point", "coordinates": [75.1138269146218, 63.75092653614164]}}, {"type": "Feature", "properties": {"norad_id": 31568, "name": "FENGYUN 1C DEB", "group": "fengyun-1c-debris", "lat": 3.5812019139840823, "lon": -116.61301854627494, "alt_km": 877.9603310728007, "timestamp": "2025-12-24T07:45:06.483131+00:00", "meta": {"OBJECT_NAME": "FENGYUN 1C DEB", "OBJECT_ID": "1999-025BZK", "EPOCH": "2025-12-22T23:13:36.644736", "MEAN_MOTION": 14.03431945, "ECCENTRICITY": 0.01239953, "INCLINATION": 102.049, "RA_OF_ASC_NODE": 242.3634, "ARG_OF_PERICENTER": 93.8828, "MEAN_ANOMALY": 267.6513, "EPHEMERIS_TYPE": 0, "CLASSIFICATION_TYPE": "U", "NORAD_CAT_ID": 31568, "ELEMENT_SET_NO": 999, "REV_AT_EPOCH": 94723, "BSTAR": 0.0030433024, "MEAN_MOTION_DOT": 5.034e-05, "MEAN_MOTION_DDOT": 0}, "tle": {"line1": "1 31568U 99025BZK 25356.96778524  .00005034  00000+0  30433-2 0  9993", "line2": "2 31568 102.0490 242.3634 0123995  93.8828 267.6513 14.03431945947231"}}, "geometry": {"type": "Point", "coordinates": [-116.61301854627494, 3.5812019139840823]}}, {"type": "Feature", "properties": {"norad_id": 31569, "name": "FENGYUN 1C DEB", "group": "fengyun-1c-debris", "lat": -39.3980668288122, "lon": -30.83146351685943, "alt_km": 972.7924988008044, "timestamp": "2025-12-24T07:45:06.483142+00:00", "meta": {"OBJECT_NAME": "FENGYUN 1C DEB", "OBJECT_ID": "1999-025BZL", "EPOCH": "2025-12-23T05:44:20.685120", "MEAN_MOTION": 13.95594539, "ECCENTRICITY": 0.01745729, "INCLINATION": 102.6156, "RA_OF_ASC_NODE": 158.2896, "ARG_OF_PERICENTER": 340.7991, "MEAN_ANOMALY": 198.5492, "EPHEMERIS_TYPE": 0, "CLASSIFICATION_TYPE": "U", "NORAD_CAT_ID": 31569, "ELEMENT_SET_NO": 999, "REV_AT_EPOCH": 93825, "BSTAR": 0.002165206, "MEAN_MOTION_DOT": 3.274e-05, "MEAN_MOTION_DDOT": 0}, "tle": {"line1": "1 31569U 99025BZL 25357.23912830  .00003274  00000+0  21652-2 0  9992", "line2": "2 31569 102.6156 158.2896 0174572 340.7991 198.5492 13.95594539938253"}}, "geometry": {"type": "Point", "coordinates": [-30.83146351685943, -39.3980668288122]}}, {"type": "Feature", "properties": {"norad_id": 31570, "name": "FENGYUN 1C DEB", "group": "fengyun-1c-debris", "lat": -76.03411141591525, "lon": 158.4567727178383, "alt_km": 772.2143957966773, "timestamp": "2025-12-24T07:45:06.483152+00:00", "meta": {"OBJECT_NAME": "FENGYUN 1C DEB", "OBJECT_ID": "1999-025BZM", "EPOCH": "2025-12-19T23:45:35.930016", "MEAN_MOTION": 14.25330142, "ECCENTRICITY": 0.01547682, "INCLINATION": 102.5663, "RA_OF_ASC_NODE": 36.0247, "ARG_OF_PERICENTER": 206.1842, "MEAN_ANOMALY": 153.1437, "EPHEMERIS_TYPE": 0, "CLASSIFICATION_TYPE": "U", "NORAD_CAT_ID": 31570, "ELEMENT_SET_NO": 999, "REV_AT_EPOCH": 63470, "BSTAR": 0.0019503601, "MEAN_MOTION_DOT": 5.132e-05, "MEAN_MOTION_DDOT": 0}, "tle": {"line1": "1 31570U 99025BZM 25353.98999919  .00005132  00000+0  19504-2 0  9993", "line2": "2 31570 102.5663  36.0247 0154768 206.1842 153.1437 14.25330142634706"}}, "geometry": {"type": "Point", "coordinates": [158.4567727178383, -76.03411141591525]}}, {"type": "Feature", "properties": {"norad_id": 31608, "name": "FENGYUN 1C DEB", "group": "fengyun-1c-debris", "lat": -3.462106197710298, "lon": 117.59168262948357, "alt_km": 512.406308287259, "timestamp": "2025-12-24T07:45:06.483161+00:00", "meta": {"OBJECT_NAME": "FENGYUN 1C DEB", "OBJECT_ID": "1999-025BZN", "EPOCH": "2025-12-17T14:09:29.850912", "MEAN_MOTION": 14.85908283, "ECCENTRICITY": 0.01457059, "INCLINATION": 98.3797, "RA_OF_ASC_NODE": 109.9897, "ARG_OF_PERICENTER": 22.0076, "MEAN_ANOMALY": 338.7309, "EPHEMERIS_TYPE": 0, "CLASSIFICATION_TYPE": "U", "NORAD_CAT_ID": 31608, "ELEMENT_SET_NO": 999, "REV_AT_EPOCH": 98705, "BSTAR": 0.00045964647, "MEAN_MOTION_DOT": 4.79e-05, "MEAN_MOTION_DDOT": 0}, "tle": {"line1": "1 31608U 99025BZN 25351.58992883  .00004790  00000+0  45965-3 0  9992", "line2": "2 31608  98.3797 109.9897 0145705  22.0076 338.7309 14.85908283987055"}}, "geometry": {"type": "Point", "coordinates": [117.59168262948357, -3.462106197710298]}}, {"type": "Feature", "properties": {"norad_id": 31609, "name": "FENGYUN 1C DEB", "group": "fengyun-1c-debris", "lat": 29.679868680422704, "lon": -147.45288185797693, "alt_km": 888.136618267461, "timestamp": "2025-12-24T07:45:06.483172+00:00", "meta": {"OBJECT_NAME": "FENGYUN 1C DEB", "OBJECT_ID": "1999-025BZP", "EPOCH": "2025-12-22T21:42:13.279104", "MEAN_MOTION": 14.15844126, "ECCENTRICITY": 0.0094714, "INCLINATION": 99.2139, "RA_OF_ASC_NODE": 25.7728, "ARG_OF_PERICENTER": 291.5289, "MEAN_ANOMALY": 191.9396, "EPHEMERIS_TYPE": 0, "CLASSIFICATION_TYPE": "U", "NORAD_CAT_ID": 31609, "ELEMENT_SET_NO": 999, "REV_AT_EPOCH": 66228, "BSTAR": 0.002391, "MEAN_MOTION_DOT": 4.866e-05, "MEAN_MOTION_DDOT": 0}, "tle": {"line1": "1 31609U 99025BZP 25356.90432036  .00004866  00000+0  23910-2 0  9992", "line2": "2 31609  99.2139  25.7728 0094714 291.5289 191.9396 14.15844126662284"}}, "geometry": {"type": "Point", "coordinates": [-147.45288185797693, 29.679868680422704]}}, {"type": "Feature", "properties": {"norad_id": 31612, "name": "FENGYUN 1C DEB", "group": "fengyun-1c-debris", "lat": 1.3489913243493836, "lon": -80.77110214110719, "alt_km": 334.94353307759684, "timestamp": "2025-12-24T07:45:06.483182+00:00", "meta": {"OBJECT_NAME": "FENGYUN 1C DEB", "OBJECT_ID": "1999-025BZS", "EPOCH": "2025-12-23T13:27:58.667616", "MEAN_MOTION": 15.76213055, "ECCENTRICITY": 0.00294851, "INCLINATION": 100.335, "RA_OF_ASC_NODE": 278.3417, "ARG_OF_PERICENTER": 71.67, "MEAN_ANOMALY": 288.7759, "EPHEMERIS_TYPE": 0, "CLASSIFICATION_TYPE": "U", "NORAD_CAT_ID": 31612, "ELEMENT_SET_NO": 999, "REV_AT_EPOCH": 175, "BSTAR": 0.0021763228, "MEAN_MOTION_DOT": 0.00363536, "MEAN_MOTION_DDOT": 0}, "tle": {"line1": "1 31612U 99025BZS 25357.56109569  .00363536  00000+0  21763-2 0  9997", "line2": "2 31612 100.3350 278.3417 0029485  71.6700 288.7759 15.76213055  1752"}}, "geometry": {"type": "Point", "coordinates": [-80.77110214110719, 1.3489913243493836]}}, {"type": "Feature", "properties": {"norad_id": 31613, "name": "FENGYUN 1C DEB", "group": "fengyun-1c-debris", "lat": 55.209835682553205, "lon": 16.157544214303517, "alt_km": 844.8409171118728, "timestamp": "2025-12-24T07:45:06.483194+00:00", "meta": {"OBJECT_NAME": "FENGYUN 1C DEB", "OBJECT_ID": "1999-025BZT", "EPOCH": "2025-12-23T06:31:23.498400", "MEAN_MOTION": 13.63471347, "ECCENTRICITY": 0.03426742, "INCLINATION": 98.424, "RA_OF_ASC_NODE": 182.93, "ARG_OF_PERICENTER": 78.1321, "MEAN_ANOMALY": 285.8034, "EPHEMERIS_TYPE": 0, "CLASSIFICATION_TYPE": "U", "NORAD_CAT_ID": 31613, "ELEMENT_SET_NO": 999, "REV_AT_EPOCH": 91905, "BSTAR": 0.0011595288, "MEAN_MOTION_DOT": 1.328e-05, "MEAN_MOTION_DDOT": 0}, "tle": {"line1": "1 31613U 99025BZT 25357.27179975  .00001328  00000+0  11595-2 0  9994", "line2": "2 31613  98.4240 182.9300 0342674  78.1321 285.8034 13.63471347919057"}}, "geometry": {"type": "Point", "coordinates": [16.157544214303517, 55.209835682553205]}}, {"type": "Feature", "properties": {"norad_id": 31614, "name": "FENGYUN 1C DEB", "group": "fengyun-1c-debris", "lat": 24.202928244434897, "lon": -98.2356546702651, "alt_km": 560.2399663164597, "timestamp": "2025-12-24T07:45:06.483205+00:00", "meta": {"OBJECT_NAME": "FENGYUN 1C DEB", "OBJECT_ID": "1999-025BZU", "EPOCH": "2025-12-23T17:21:05.772672", "MEAN_MOTION": 14.99252513, "ECCENTRICITY": 0.00181827, "INCLINATION": 98.9726, "RA_OF_ASC_NODE": 265.1466, "ARG_OF_PERICENTER": 336.1404, "MEAN_ANOMALY": 51.7298, "EPHEMERIS_TYPE": 0, "CLASSIFICATION_TYPE": "U", "NORAD_CAT_ID": 31614, "ELEMENT_SET_NO": 999, "REV_AT_EPOCH": 96594, "BSTAR": 0.0072376866, "MEAN_MOTION_DOT": 0.00089587, "MEAN_MOTION_DDOT": 0}, "tle": {"line1": "1 31614U 99025BZU 25357.72298348  .00089587  00000+0  72377-2 0  9999", "line2": "2 31614  98.9726 265.1466 0018182 336.1404  51.7298 14.99252513965945"}}, "geometry": {"type": "Point", "coordinates": [-98.2356546702651, 24.202928244434897]}}]}